JILIN-01 GAOFEN 2B      
1 44836U 19086A   21018.93451525  .00000793  00000-0  53378-4 0  9994
2 44836  97.4868  86.3181 0009760 316.1190 216.8703 15.09461542 61673
2019-087A               
1 44838U 19087A   21018.94618330  .00001513  00000-0  69086-4 0  9991
2 44838  97.4191 177.4662 0011139 273.3263 204.2921 15.22084549 62114
2019-087B               
1 44839U 19087B   21018.91187047  .00000831  00000-0  39702-4 0  9999
2 44839  97.4174 177.3100 0011318 275.2122 236.2876 15.21759193 62113
2019-087C               
1 44840U 19087C   21018.91950666  .00000963  00000-0  45191-4 0  9991
2 44840  97.4249 177.8209 0010492 277.2813 233.8962 15.22012350 62122
2019-087D               
1 44841U 19087D   21018.96201869  .00002435  00000-0  10476-3 0  9994
2 44841  97.4108 177.8312 0008834 268.2322 209.9772 15.23556500 62162
2019-087E               
1 44842U 19087E   21018.92989188  .00001011  00000-0  46990-4 0  9998
2 44842  97.4138 177.3577 0009931 279.3736 232.1946 15.22235078 62136
2019-087F               
1 44843U 19087F   21018.94593380  .00000867  00000-0  40859-4 0  9992
2 44843  97.4192 177.6475 0011849 289.6522 228.0551 15.22108321 62120
COSMOS 2544 [GLONASS-M] 
1 44850U 19088A   21018.76843392  .00000024  00000-0  00000-0 0  9997
2 44850  64.8665 139.9412 0010310 259.0376 349.8359  2.13102276  8614
TYVAK-0092              
1 44852U 19089A   21018.87136250  .00000654  00000-0  57971-4 0  9992
2 44852  36.9669 262.9804 0006267  22.9960 337.1048 14.99984848 60718
TYVAK-0129              
1 44853U 19089B   21018.88504637  .00000691  00000-0  61181-4 0  9991
2 44853  36.9666 263.7530 0006057  10.0436  89.8815 14.99769032 60713
DUCHIFAT-3              
1 44854U 19089C   21018.95855650  .00000384  00000-0  37275-4 0  9990
2 44854  36.9658 264.5833 0008831 358.0757   1.9934 14.99296713 60654
LEMUR-2-JPGSQUARED      
1 44855U 19089D   21018.86090745  .00000677  00000-0  60716-4 0  9998
2 44855  36.9681 265.6687 0006412 345.1720  14.8828 14.99339617 60690
QPS-SAR-1 IZANAGI       
1 44856U 19089E   21018.86761588  .00000675  00000-0  61456-4 0  9999
2 44856  36.9684 267.5722 0006496 327.7135  32.3187 14.98768207 60674
RISAT-2BR1              
1 44857U 19089F   21018.78184812  .00000302  00000-0  31715-4 0  9992
2 44857  36.9642 270.4419 0007461 309.5425  50.4682 14.97907953 60637
2019-089G               
1 44858U 19089G   21018.77811990  .00000723  00000-0  65426-4 0  9999
2 44858  36.9681 268.7739 0006225 304.9799  55.0358 14.98702703 60656
IHOPSAT-TD              
1 44859U 19089H   21018.88189108  .00000114  00000-0  15883-4 0  9997
2 44859  36.9724 267.8291 0006998 334.4694  25.5700 14.98469436 60686
LEMUR-2-HIMOMANDDAD     
1 44860U 19089J   21018.97157551  .00000992  00000-0  86384-4 0  9994
2 44860  36.9666 265.6185 0006838 340.9233  19.1244 14.99162100 60709
LEMUR-2-PAPPY           
1 44861U 19089K   21018.95834807  .00000936  00000-0  81728-4 0  9994
2 44861  36.9676 265.5073 0007081 345.1028  14.9502 14.99211785 60643
LEMUR-2-THEODOSIA       
1 44863U 19089M   21018.87677605  .00000432  00000-0  41167-4 0  9992
2 44863  36.9673 265.7795 0006847 345.4664  14.5875 14.99245766 60547
BEIDOU-3 M19            
1 44864U 19090A   21018.55030610 -.00000004  00000-0  00000-0 0  9992
2 44864  55.1552 128.9154 0014712 260.4874 143.6720  1.86231734  7440
BEIDOU-3 M20            
1 44865U 19090B   21018.76267551 -.00000004  00000-0  00000-0 0  9992
2 44865  55.1582 128.9388 0013315 276.9497 359.5203  1.86231707  7426
JCSAT-18 (KACIFIC 1)    
1 44868U 19091A   21018.78733297 -.00000200  00000-0  00000-0 0  9991
2 44868   0.0334 131.1784 0000649 194.2052 226.4114  1.00270097  4212
CSG-1                   
1 44873U 19092A   21018.76041157 -.00000029  00000-0  29550-5 0  9998
2 44873  97.8825 204.7900 0001276  86.5849 273.5533 14.82158080 58867
CHEOPS                  
1 44874U 19092B   21018.77804505  .00000005  00000-0  11270-4 0  9996
2 44874  98.2322 206.7181 0011877 126.4986 233.7308 14.56834022 57856
ANGELS                  
1 44876U 19092D   21018.76295079  .00000348  00000-0  21238-4 0  9992
2 44876  97.4616 204.6306 0012251 353.8633   6.2448 15.16554629 60214
EYESAT-NANO             
1 44877U 19092E   21018.76016474  .00001336  00000-0  69991-4 0  9999
2 44877  97.4548 204.6058 0013284 357.0939   3.0215 15.17452470 60236
OPS-SAT                 
1 44878U 19092F   21018.78468855  .00001149  00000-0  63082-4 0  9993
2 44878  97.4689 204.5310 0013280 335.5296  24.5305 15.16055091 60152
2019-093A               
1 44879U 19093A   21018.79035065  .00000217  00000-0  34339-4 0  9997
2 44879  97.9405  99.1607 0016390  61.4527 298.8336 14.81537798 58582
2019-093B               
1 44880U 19093B   21018.78885247  .00000181  00000-0  29783-4 0  9990
2 44880  97.9407  99.1727 0016442  62.1889 298.0999 14.81521281 58572
CAS-6 (TIANQIN 1)       
1 44881U 19093C   21018.79152868 -.00000474  00000-0 -53712-4 0  9994
2 44881  97.9395  99.1581 0016163  61.0808 299.2018 14.81419571 58579
2019-093D               
1 44882U 19093D   21018.76564879  .00000293  00000-0  43972-4 0  9995
2 44882  97.9448  99.3806 0017538  63.2105 297.0900 14.81640062 58579
CBERS 4A                
1 44883U 19093E   21018.76524275  .00000115  00000-0  21346-4 0  9996
2 44883  97.9409  99.2204 0001643  91.0860 269.0536 14.81520009 58588
2019-093F               
1 44884U 19093F   21018.81566079  .00000254  00000-0  38753-4 0  9995
2 44884  97.9387  99.3498 0015033  67.7382 292.5431 14.81950163 58591
FLORIPASAT-1            
1 44885U 19093G   21018.75874831  .00000287  00000-0  42686-4 0  9993
2 44885  97.9406  99.5008 0015919  70.5774 289.7158 14.82180303 58599
2019-093H               
1 44886U 19093H   21018.80287119  .00000211  00000-0  32971-4 0  9990
2 44886  97.9428  99.8388 0016622  75.7773 284.5299 14.82488438 58618
2019-093J               
1 44887U 19093J   21018.80744271  .00000137  00000-0  23714-4 0  9990
2 44887  97.9414  99.8035 0016523  75.1920 285.1134 14.82443320 58617
ELEKTRO-L 3             
1 44903U 19095A   21018.84424289 -.00000095  00000-0  00000-0 0  9992
2 44903   0.0141  76.0552 0000119 270.9447 151.4381  1.00272061  3912
GONETS-M 14             
1 44905U 19096A   21018.80464656  .00000057  00000-0  34255-3 0  9992
2 44905  82.5221 229.2744 0014031 142.9598 217.2450 12.42873498 48305
GONETS-M 15             
1 44906U 19096B   21018.83126834  .00000033  00000-0  16643-3 0  9994
2 44906  82.5243 229.3770 0015655 166.1627 193.9884 12.42872929 48291
GONETS-M 16             
1 44907U 19096C   21018.85816067  .00000040  00000-0  21891-3 0  9990
2 44907  82.5179 229.2073 0011376 206.3977 153.6524 12.42889853 48294
RS-44 & BREEZE-KM R/B   
1 44909U 19096E   21018.83015890  .00000008  00000-0 -21061-4 0  9990
2 44909  82.5194 212.2054 0218359  82.9963 279.5917 12.79708254 49736
SHIJIAN-20 (SJ-20)      
1 44910U 19097A   21018.87619257 -.00000282  00000-0  00000-0 0  9994
2 44910   0.6178  95.3412 0008420 200.3434 242.7869  0.99977046  3895
STARLINK-1073           
1 44914U 20001A   21018.72015192  .00000639  00000-0  62989-4 0  9990
2 44914  53.0002 128.1703 0001319 110.4155 249.6975 15.05588580 57095
STARLINK-1084           
1 44915U 20001B   21018.61724519  .00000573  00000-0  58507-4 0  9997
2 44915  53.0001 128.6313 0001402 106.3732 253.7410 15.05588845 57088
STARLINK-1097           
1 44916U 20001C   21018.56082649 -.00000977  00000-0 -47908-4 0  9996
2 44916  53.0003 128.8851 0001552 110.2325 249.8830 15.05584133 57075
STARLINK-1098           
1 44917U 20001D   21018.68696049  .00000537  00000-0  56013-4 0  9992
2 44917  53.0011 128.3225 0001476 103.9494 256.1658 15.05577694 57091
STARLINK-1099           
1 44918U 20001E   21018.56415483  .00000281  00000-0  38423-4 0  9992
2 44918  53.0011 128.8667 0001455 100.6083 259.5069 15.05581386 57818
STARLINK-1101           
1 44919U 20001F   21018.71019515  .00000347  00000-0  42973-4 0  9994
2 44919  53.0014 128.2109 0001356 108.6794 251.4341 15.05573203 57097
STARLINK-1102           
1 44920U 20001G   21018.71351381  .00002803  00000-0  21141-3 0  9998
2 44920  53.0006 128.1985 0001091  99.1118 260.9993 15.05587321 57095
STARLINK-1103           
1 44921U 20001H   21018.70687597  .00000474  00000-0  51736-4 0  9995
2 44921  52.9995 128.2222 0001711  87.4766 272.6418 15.05575105 57093
STARLINK-1104           
1 44922U 20001J   21018.56746006  .00000391  00000-0  45996-4 0  9990
2 44922  52.9994 128.8502 0001461  91.2532 268.8624 15.05590034 57078
STARLINK-1106           
1 44923U 20001K   21018.72679753  .00000441  00000-0  49449-4 0  9996
2 44923  53.0007 128.1390 0001414 103.2850 256.8295 15.05579892 57091
STARLINK-1111           
1 44924U 20001L   21018.65045852 -.00000950  00000-0 -46047-4 0  9994
2 44924  53.0004 128.4820 0001309 107.7506 252.3625 15.05574920 57084
STARLINK-1112           
1 44925U 20001M   21018.79648532 -.00001374  00000-0 -75168-4 0  9991
2 44925  52.9993 127.8225 0001440 108.0539 252.0606 15.05577053 57107
STARLINK-1113           
1 44926U 20001N   21018.80312580  .00000451  00000-0  50136-4 0  9996
2 44926  53.0009 127.7990 0001113 108.1443 251.9666 15.05583769 57855
STARLINK-1114           
1 44927U 20001P   21018.67700139  .00000330  00000-0  41823-4 0  9992
2 44927  52.9995 128.3605 0001227 105.6053 254.5070 15.05581864 57091
STARLINK-1119           
1 44928U 20001Q   21018.60729507  .00000467  00000-0  51239-4 0  9999
2 44928  52.9999 128.6766 0001351 108.9740 251.1394 15.05583831 57081
STARLINK-1121           
1 44929U 20001R   21018.72347491  .00000308  00000-0  40288-4 0  9997
2 44929  52.9991 128.1481 0001482 105.7981 254.3170 15.05571644 57097
STARLINK-1123           
1 44930U 20001S   21018.69027856  .00000558  00000-0  57482-4 0  9996
2 44930  52.9993 128.2991 0001333  99.1899 260.9240 15.05577334 57090
